[{"OBJECT_NAME":"STARLINK-1513","OBJECT_ID":"2020-038BJ","EPOCH":"2026-03-09T15:00:15.367104","MEAN_MOTION":15.30234927,"ECCENTRICITY":9.51e-5,"INCLINATION":53.1601,"RA_OF_ASC_NODE":191.4505,"ARG_OF_PERICENTER":101.2977,"MEAN_ANOMALY":258.8131,"EPHEMERIS_TYPE":0,"CLASSIFICATION_TYPE":"U","NORAD_CAT_ID":45786,"ELEMENT_SET_NO":999,"REV_AT_EPOCH":31683,"BSTAR":0.0004075,"MEAN_MOTION_DOT":0.00011742,"MEAN_MOTION_DDOT":0},{"OBJECT_NAME":"ELECTRON KICK STAGE R\/B","OBJECT_ID":"2022-147B","EPOCH":"2026-03-09T22:28:20.187264","MEAN_MOTION":15.28920172,"ECCENTRICITY":0.00095089,"INCLINATION":97.642,"RA_OF_ASC_NODE":85.1135,"ARG_OF_PERICENTER":110.4683,"MEAN_ANOMALY":249.7578,"EPHEMERIS_TYPE":0,"CLASSIFICATION_TYPE":"U","NORAD_CAT_ID":54228,"ELEMENT_SET_NO":999,"REV_AT_EPOCH":18390,"BSTAR":0.00083201931,"MEAN_MOTION_DOT":0.00023374,"MEAN_MOTION_DDOT":0}]
